{
    "links": {
        "self": "http://www.neowsapp.com/rest/v1/neo/3836721?api_key=iIulBulltgU6a56xZRHN4H3l9WmuAYTsLGpBGhQ2"
    },
    "id": "3836721",
    "neo_reference_id": "3836721",
    "name": "(2018 XO)",
    "designation": "2018 XO",
    "nasa_jpl_url": "http://ssd.jpl.nasa.gov/sbdb.cgi?sstr=3836721",
    "absolute_magnitude_h": 24.4,
    "estimated_diameter": {
        "kilometers": {
            "estimated_diameter_min": 0.0350392641,
            "estimated_diameter_max": 0.0783501764
        },
        "meters": {
            "estimated_diameter_min": 35.0392641108,
            "estimated_diameter_max": 78.3501764334
        },
        "miles": {
            "estimated_diameter_min": 0.0217723826,
            "estimated_diameter_max": 0.0486845275
        },
        "feet": {
            "estimated_diameter_min": 114.9582192654,
            "estimated_diameter_max": 257.0543928497
        }
    },
    "is_potentially_hazardous_asteroid": false,
    "close_approach_data": [
        {
            "close_approach_date": "2018-06-26",
            "close_approach_date_full": "2018-Jun-26 10:28",
            "epoch_date_close_approach": 1530008880000,
            "relative_velocity": {
                "kilometers_per_second": "13.0786532513",
                "kilometers_per_hour": "47083.1517047264",
                "miles_per_hour": "29255.6394578618"
            },
            "miss_distance": {
                "astronomical": "0.3405499674",
                "lunar": "132.4739373186",
                "kilometers": "50945549.751609438",
                "miles": "31656096.7029407244"
            },
            "orbiting_body": "Earth"
        },
        {
            "close_approach_date": "2018-11-25",
            "close_approach_date_full": "2018-Nov-25 20:16",
            "epoch_date_close_approach": 1543176960000,
            "relative_velocity": {
                "kilometers_per_second": "14.0280044303",
                "kilometers_per_hour": "50500.815949129",
                "miles_per_hour": "31379.2431101685"
            },
            "miss_distance": {
                "astronomical": "0.1122881501",
                "lunar": "43.6800903889",
                "kilometers": "16798068.081200287",
                "miles": "10437835.4967944806"
            },
            "orbiting_body": "Earth"
        }
    ],
    "orbital_data": {
        "orbit_id": "5",
        "orbit_determination_date": "2019-01-21 07:51:17",
        "first_observation_date": "2018-12-04",
        "last_observation_date": "2018-12-15",
        "data_arc_in_days": 11,
        "observations_used": 38,
        "orbit_uncertainty": "8",
        "minimum_orbit_intersection": ".1116",
        "jupiter_tisserand_invariant": "4.757",
        "epoch_osculation": "2458457.5",
        "eccentricity": ".2578037942754104",
        "semi_major_axis": "1.346787645408728",
        "inclination": "24.65241358384746",
        "ascending_node_longitude": "249.2715995118103",
        "orbital_period": "570.88300257598",
        "perihelion_distance": ".9995806803391116",
        "perihelion_argument": "120.8275597937773",
        "aphelion_distance": "1.693994610478343",
        "perihelion_time": "2458397.196521035721",
        "mean_anomaly": "38.0274983300998",
        "mean_motion": ".6306020644783287",
        "equinox": "J2000",
        "orbit_class": {
            "orbit_class_type": "APO",
            "orbit_class_description": "Near-Earth asteroid orbits which cross the Earth’s orbit similar to that of 1862 Apollo",
            "orbit_class_range": "a (semi-major axis) > 1.0 AU; q (perihelion) < 1.017 AU"
        }
    },
    "is_sentry_object": false
}